CZ-2D R/B               
1 28738U 05024B   26131.76893405  .00035760  00000+0  35254-3 0  9996
2 28738  97.3521 149.4857 0006445 131.9054 228.2756 15.65849476149637
ALOS (DAICHI)           
1 28931U 06002A   26131.87856501  .00000635  00000+0  11420-3 0  9998
2 28931  98.1303  87.5667 0002208  89.1546 270.9913 14.69974306 82766
H-2A R/B                
1 28932U 06002B   26131.86190611  .00003936  00000+0  19319-3 0  9993
2 28932  98.2522 284.4287 0051483  27.7802 332.6162 15.17622359104016
RESURS-DK 1             
1 29228U 06021A   26131.87484217  .00001302  00000+0  79580-4 0  9994
2 29228  69.9319  73.5404 0004519 331.7894  28.3027 15.13060448 97087
CZ-4B R/B               
1 29507U 06046C   26131.85741404  .00002917  00000+0  14693-3 0  9999
2 29507  97.5484 176.5795 0033978  50.7018 309.7220 15.17493668 69629
CZ-2C R/B               
1 31114U 07010B   26131.84918626  .00000050  00000+0  41475-4 0  9994
2 31114  98.4057 241.9850 0060156 110.3012 250.4644 14.20267096988681
COSMO-SKYMED 1          
1 31598U 07023A   26131.97388979  .00001013  00000+0  93439-4 0  9997
2 31598  97.8868 323.5292 0001350  82.3932 277.7442 14.96927690 24378
COSMOS 2428             
1 31792U 07029A   26131.89627941 -.00000257  00000+0 -11217-3 0  9999
2 31792  70.9398  70.6694 0008224 201.3909 158.6870 14.12940308973020
SL-16 R/B               
1 31793U 07029B   26131.91351634 -.00000106  00000+0 -29871-4 0  9995
2 31793  70.9778  39.4810 0002783 269.2246 164.2222 14.14851911974317
KORONAS-FOTON           
1 33504U 09003A   26131.49241034  .00007858  00000+0  16603-3 0  9993
2 33504  82.4317 210.5103 0008887 288.1780  71.8500 15.44941727955430
CZ-2C R/B               
1 37731U 11030B   26131.83713873  .00000562  00000+0  76984-4 0  9999
2 37731  97.8633  87.8884 0053221 143.4883 275.9112 14.81386368799444
H-2A R/B                
1 38341U 12025E   26131.89557492  .00001174  00000+0  11004-3 0  9992
2 38341  98.4812 104.0624 0045479 105.2746 255.3507 14.95519328757669
SHIJIAN-16 (SJ-16)      
1 39358U 13057A   26131.90958244  .00001436  00000+0  14229-3 0  9992
2 39358  74.9724  65.3859 0016733 314.2778  45.7036 14.92517190680931
SL-4 R/B                
1 39679U 14021B   26131.88924830  .00007877  00000+0  17037-3 0  9996
2 39679  51.6078  28.4762 0092124 334.1510  25.4886 15.41111025666010
ALOS-2                  
1 39766U 14029A   26131.95559227  .00000671  00000+0  96714-4 0  9998
2 39766  97.9209 229.6370 0001580  90.4823 269.6570 14.79466810646229
YAOGAN-29               
1 41038U 15069A   26131.94705163 -.00000439  00000+0 -47361-4 0  9997
2 41038  98.0058 160.5193 0002581 113.1869 246.9616 14.83052006565254
ASTRO-H (HITOMI)        
1 41337U 16012A   26131.75415595  .00001800  00000+0  10130-3 0  9998
2 41337  31.0001 309.4561 0009614 247.2287 112.7335 15.10359474561772
HXMT (HUIYAN)           
1 42758U 17034A   26131.95180815  .00003045  00000+0  15612-3 0  9990
2 42758  43.0171  24.7557 0032939 275.1391  84.5698 15.18141214492157
SAOCOM 1A               
1 43641U 18076A   26131.95039870  .00000878  00000+0  11684-3 0  9999
2 43641  97.8895 319.2250 0001591  84.0204 276.1190 14.82148921410733
H-2A R/B                
1 43682U 18084L   26131.39215223  .00012178  00000+0  26880-3 0  9999
2 43682  98.8637   2.2814 0024291 162.3714 197.8378 15.43778256415444
SAOCOM 1B               
1 46265U 20059A   26131.98164214 -.00000147  00000+0 -11931-4 0  9999
2 46265  97.8896 318.3497 0001540  80.6754 279.4633 14.82159449308122
CSS (TIANHE)            
1 48274U 21035A   26131.49630319  .00032325  00000+0  36027-3 0  9999
2 48274  41.4667 185.1700 0004284 287.6488  72.3883 15.62123975287434
COSMOS 2550             
1 48865U 21056A   26131.96417725  .00003100  00000+0  99851-4 0  9998
2 48865  67.1431 209.4781 0008506 267.2570  92.7610 15.33882424273168
CZ-2C R/B               
1 52794U 22058K   26131.74250327  .00030029  00000+0  36989-3 0  9998
2 52794  50.1879 352.7609 0036352 111.9977 248.4864 15.59110730219959
CZ-2C R/B               
1 54039U 22132E   26131.74457714  .00036822  00000+0  33622-3 0  9992
2 54039  97.2929 137.2568 0014724 203.0152 157.0451 15.67637353200230
GSLV R/B                
1 54149U 22138AN  26131.75789541  .00001403  00000+0  11884-3 0  9990
2 54149  87.3798 145.2197 0018730 284.0654  75.8495 14.97093602193365
XRISM                   
1 57800U 23137A   26131.69141388  .00002631  00000+0  14329-3 0  9992
2 57800  31.0020 235.9473 0007670 315.6174  44.3850 15.12155544147333
ACS3                    
1 59588U 24077B   26131.72255012  .00015946  00000+0  12357-1 0  9995
2 59588  97.1716  58.6789 0036753 343.1728  16.8215 13.92296850102969
HTV-X1                  
1 66174U 25241A   26131.34454128  .00011689  00000+0  12954-3 0  9990
2 66174  51.6340 126.7151 0007521  48.6715 311.4925 15.63444627 30587
SZ-21 MODULE            
1 66515U 25246C   26131.43406306  .00027161  00000+0  19167-3 0  9994
2 66515  41.4722 175.6855 0002440 104.0595 256.0519 15.73413289 27949

ISS (ZARYA)             
1 25544U 98067A   26131.94084644  .00005053  00000+0  99156-4 0  9998
2 25544  51.6311 119.5258 0007482  49.0995 311.0641 15.49189846566139
POISK                   
1 36086U 09060A   26131.94084644  .00005053  00000+0  99156-4 0  9996
2 36086  51.6311 119.5258 0007482  49.0995 311.0641 15.49189846565120
CSS (TIANHE)            
1 48274U 21035A   26131.49630319  .00032325  00000+0  36027-3 0  9999
2 48274  41.4667 185.1700 0004284 287.6488  72.3883 15.62123975287434
ISS (NAUKA)             
1 49044U 21066A   26131.94084644  .00005053  00000+0  99156-4 0  9994
2 49044  51.6311 119.5258 0007482  49.0995 311.0641 15.49189846565162
FREGAT DEB              
1 49271U 11037PF  26131.34674583  .00004956  00000+0  78366-2 0  9993
2 49271  51.6349 112.5887 0931605 202.2712 153.5048 12.41331452220472
CSS (WENTIAN)           
1 53239U 22085A   26131.49630320  .00032325  00000+0  36027-3 0  9994
2 53239  41.4667 185.1700 0004284 287.6488  72.3883 15.62123975286250
CSS (MENGTIAN)          
1 54216U 22143A   26131.49630319  .00032325  00000+0  36027-3 0  9993
2 54216  41.4667 185.1700 0004284 287.6488  72.3883 15.62123975287875
HRC MONOBLOCK CAMERA    
1 66052U 98067XR  26131.63354457  .00044131  00000+0  37517-3 0  9997
2 66052  51.6248 106.1958 0004713  40.7519 319.3830 15.69138982 32259
HTV-X1                  
1 66174U 25241A   26131.34454128  .00011689  00000+0  12954-3 0  9990
2 66174  51.6340 126.7151 0007521  48.6715 311.4925 15.63444627 30587
SZ-21 MODULE            
1 66515U 25246C   26131.43406306  .00027161  00000+0  19167-3 0  9994
2 66515  41.4722 175.6855 0002440 104.0595 256.0519 15.73413289 27949
SHENZHOU-22             
1 66645U 25272A   26131.49630319  .00032325  00000+0  36027-3 0  9998
2 66645  41.4667 185.1700 0004284 287.6488  72.3883 15.62123975287896
SOYUZ-MS 28             
1 66664U 25275A   26131.94084644  .00005053  00000+0  99156-4 0  9997
2 66664  51.6311 119.5258 0007482  49.0995 311.0641 15.49189846565406
DUPLEX                  
1 66906U 98067XS  26131.56537382  .00024048  00000+0  29783-3 0  9998
2 66906  51.6270 114.0142 0005745  48.7415 311.4072 15.59923685 24932
ISS OBJECT XW           
1 66910U 98067XW  26131.17042988  .00898619  44239-3  11390-2 0  9996
2 66910  51.6103 100.6609 0003646  95.1934 264.9495 16.06874453 25079
ISS OBJECT XY           
1 66912U 98067XY  26131.63067713  .00128327  00000+0  70747-3 0  9990
2 66912  51.6216 105.3877 0006848  63.8282 296.3423 15.78743169 25044
KNACKSAT-2              
1 67683U 98067XZ  26131.66763321  .00027184  00000+0  37638-3 0  9998
2 67683  51.6279 117.7017 0012594  63.6305 296.5978 15.56805390 14586
CORAL                   
1 67684U 98067YA  26131.67276504  .00086128  00000+0  82241-3 0  9995
2 67684  51.6249 114.7250 0015479  60.8172 299.4370 15.65858597 14626
GXIBA-1                 
1 67685U 98067YB  26131.25091942  .00034555  00000+0  45847-3 0  9999
2 67685  51.6269 119.4187 0014441  59.6598 300.5820 15.57790433 14524
UITMSAT-2               
1 67686U 98067YC  26131.25923104  .00044337  00000+0  54418-3 0  9997
2 67686  51.6267 118.7262 0011209  43.0353 317.1515 15.59784989 14531
HMU-SAT2                
1 67687U 98067YD  26131.26492912  .00031148  00000+0  42140-3 0  9992
2 67687  51.6284 119.5191 0010724  43.0520 317.1309 15.57377337 14442
LEOPARD                 
1 67688U 98067YE  26131.22052068  .00038550  00000+0  49111-3 0  9992
2 67688  51.6281 119.2206 0010923  42.2028 317.9804 15.58870761 14447
CREW DRAGON 12          
1 67796U 26031A   26131.94084644  .00005053  00000+0  99156-4 0  9995
2 67796  51.6311 119.5258 0007482  49.0995 311.0641 15.49189846566404
PROGRESS-MS 33          
1 68319U 26058A   26131.94084644  .00005053  00000+0  99156-4 0  9996
2 68319  51.6311 119.5258 0007482  49.0995 311.0641 15.49189846  6797
CYGNUS NG-24            
1 68689U 26079A   26131.94084644  .00005053  00000+0  99156-4 0  9999
2 68689  51.6311 119.5258 0007482  49.0995 311.0641 15.49189846  4885
PROGRESS-MS 34          
1 68837U 26093A   26131.94084644  .00005053  00000+0  99156-4 0  9990
2 68837  51.6311 119.5258 0007482  49.0995 311.0641 15.49189846  2383
TIANZHOU-10             
1 69049U 26102A   26131.49630320  .00032325  00000+0  36027-3 0  9994
2 69049  41.4667 185.1700 0004284 287.6488  72.3883 15.62123975    81
CZ-7 R/B                
1 69050U 26102B   26131.67280541  .00263037  75394-5  21344-3 0  9998
2 69050  41.4930 183.9016 0093059 176.6838 183.4652 16.04320735   107
